[
  {
    "OBJECT_NAME": "STARLINK-1598",
    "OBJECT_ID": "20057AV",
    "EPOCH": "2025-11-10T17:27:30.800448",
    "MEAN_MOTION": 15.06405012,
    "ECCENTRICITY": 0.0001259,
    "INCLINATION": 53.0539,
    "RA_OF_ASC_NODE": 110.6586,
    "ARG_OF_PERICENTER": 79.4062,
    "MEAN_ANOMALY": 280.7069,
    "EPHEMERIS_TYPE": 0,
    "CLASSIFICATION_TYPE": "U",
    "NORAD_CAT_ID": 46160,
    "ELEMENT_SET_NO": 999,
    "REV_AT_EPOCH": 28966,
    "BSTAR": 0.00017255000000000002,
    "MEAN_MOTION_DOT": 2.29e-05,
    "MEAN_MOTION_DDOT": 0.0,
    "TLE_LINE1": "1 46160U 20057AV  25314.72743982  .00002290  00000+0  17255-3 0  9993",
    "TLE_LINE2": "2 46160  53.0539 110.6586 0001259  79.4062 280.7069 15.06405012289663",
    "COMMENT": "Grouped by shell and plane from TLE"
  },
  {
    "OBJECT_NAME": "STARLINK-1777",
    "OBJECT_ID": "20088A",
    "EPOCH": "2025-11-10T20:29:57.454080",
    "MEAN_MOTION": 15.06400304,
    "ECCENTRICITY": 3.78e-05,
    "INCLINATION": 53.053,
    "RA_OF_ASC_NODE": 115.0929,
    "ARG_OF_PERICENTER": 73.337,
    "MEAN_ANOMALY": 286.766,
    "EPHEMERIS_TYPE": 0,
    "CLASSIFICATION_TYPE": "U",
    "NORAD_CAT_ID": 47122,
    "ELEMENT_SET_NO": 999,
    "REV_AT_EPOCH": 27392,
    "BSTAR": 7.099e-05,
    "MEAN_MOTION_DOT": 7.77e-06,
    "MEAN_MOTION_DDOT": 0.0,
    "TLE_LINE1": "1 47122U 20088A   25314.85413720  .00000777  00000+0  70990-4 0  9998",
    "TLE_LINE2": "2 47122  53.0530 115.0929 0000378  73.3370 286.7660 15.06400304273923",
    "COMMENT": "Grouped by shell and plane from TLE"
  },
  {
    "OBJECT_NAME": "STARLINK-1812",
    "OBJECT_ID": "20088E",
    "EPOCH": "2025-11-11T03:29:16.857600",
    "MEAN_MOTION": 15.06416415,
    "ECCENTRICITY": 0.0001494,
    "INCLINATION": 53.0553,
    "RA_OF_ASC_NODE": 113.782,
    "ARG_OF_PERICENTER": 98.3818,
    "MEAN_ANOMALY": 261.734,
    "EPHEMERIS_TYPE": 0,
    "CLASSIFICATION_TYPE": "U",
    "NORAD_CAT_ID": 47126,
    "ELEMENT_SET_NO": 999,
    "REV_AT_EPOCH": 27397,
    "BSTAR": 0.0,
    "MEAN_MOTION_DOT": -2.338e-05,
    "MEAN_MOTION_DDOT": 0.0,
    "TLE_LINE1": "1 47126U 20088E   25315.14533400 -.00002338  00000+0 -13803-3 0  9999",
    "TLE_LINE2": "2 47126  53.0553 113.7820 0001494  98.3818 261.7340 15.06416415273974",
    "COMMENT": "Grouped by shell and plane from TLE"
  },
  {
    "OBJECT_NAME": "STARLINK-1871",
    "OBJECT_ID": "20088AM",
    "EPOCH": "2025-11-11T03:45:13.449024",
    "MEAN_MOTION": 15.06387474,
    "ECCENTRICITY": 0.0003572,
    "INCLINATION": 53.0545,
    "RA_OF_ASC_NODE": 113.7353,
    "ARG_OF_PERICENTER": 82.3069,
    "MEAN_ANOMALY": 277.8326,
    "EPHEMERIS_TYPE": 0,
    "CLASSIFICATION_TYPE": "U",
    "NORAD_CAT_ID": 47157,
    "ELEMENT_SET_NO": 999,
    "REV_AT_EPOCH": 27397,
    "BSTAR": 0.0,
    "MEAN_MOTION_DOT": -6.07e-06,
    "MEAN_MOTION_DDOT": 0.0,
    "TLE_LINE1": "1 47157U 20088AM  25315.15640566 -.00000607  00000+0 -21774-4 0  9990",
    "TLE_LINE2": "2 47157  53.0545 113.7353 0003572  82.3069 277.8326 15.06387474273974",
    "COMMENT": "Grouped by shell and plane from TLE"
  },
  {
    "OBJECT_NAME": "STARLINK-1912",
    "OBJECT_ID": "20088BJ",
    "EPOCH": "2025-11-10T20:35:16.500768",
    "MEAN_MOTION": 15.0640377,
    "ECCENTRICITY": 0.0001253,
    "INCLINATION": 53.0528,
    "RA_OF_ASC_NODE": 115.0733,
    "ARG_OF_PERICENTER": 93.5408,
    "MEAN_ANOMALY": 266.5725,
    "EPHEMERIS_TYPE": 0,
    "CLASSIFICATION_TYPE": "U",
    "NORAD_CAT_ID": 47178,
    "ELEMENT_SET_NO": 999,
    "REV_AT_EPOCH": 27392,
    "BSTAR": 0.00014228,
    "MEAN_MOTION_DOT": 1.839e-05,
    "MEAN_MOTION_DDOT": 0.0,
    "TLE_LINE1": "1 47178U 20088BJ  25314.85782987  .00001839  00000+0  14228-3 0  9994",
    "TLE_LINE2": "2 47178  53.0528 115.0733 0001253  93.5408 266.5725 15.06403770273921",
    "COMMENT": "Grouped by shell and plane from TLE"
  },
  {
    "OBJECT_NAME": "STARLINK-2083",
    "OBJECT_ID": "21012BJ",
    "EPOCH": "2025-11-11T04:11:44.619936",
    "MEAN_MOTION": 15.06400075,
    "ECCENTRICITY": 0.000146,
    "INCLINATION": 53.0547,
    "RA_OF_ASC_NODE": 113.6489,
    "ARG_OF_PERICENTER": 98.053,
    "MEAN_ANOMALY": 262.0624,
    "EPHEMERIS_TYPE": 0,
    "CLASSIFICATION_TYPE": "U",
    "NORAD_CAT_ID": 47676,
    "ELEMENT_SET_NO": 999,
    "REV_AT_EPOCH": 26392,
    "BSTAR": 0.00013521,
    "MEAN_MOTION_DOT": 1.733e-05,
    "MEAN_MOTION_DDOT": 0.0,
    "TLE_LINE1": "1 47676U 21012BJ  25315.17482199  .00001733  00000+0  13521-3 0  9991",
    "TLE_LINE2": "2 47676  53.0547 113.6489 0001460  98.0530 262.0624 15.06400075263926",
    "COMMENT": "Grouped by shell and plane from TLE"
  },
  {
    "OBJECT_NAME": "STARLINK-2563",
    "OBJECT_ID": "21038BK",
    "EPOCH": "2025-11-10T20:27:58.681728",
    "MEAN_MOTION": 15.06401187,
    "ECCENTRICITY": 0.0001414,
    "INCLINATION": 53.0532,
    "RA_OF_ASC_NODE": 110.0989,
    "ARG_OF_PERICENTER": 89.5994,
    "MEAN_ANOMALY": 270.5157,
    "EPHEMERIS_TYPE": 0,
    "CLASSIFICATION_TYPE": "U",
    "NORAD_CAT_ID": 48410,
    "ELEMENT_SET_NO": 999,
    "REV_AT_EPOCH": 25003,
    "BSTAR": 0.00016309,
    "MEAN_MOTION_DOT": 2.149e-05,
    "MEAN_MOTION_DDOT": 0.0,
    "TLE_LINE1": "1 48410U 21038BK  25314.85276252  .00002149  00000+0  16309-3 0  9990",
    "TLE_LINE2": "2 48410  53.0532 110.0989 0001414  89.5994 270.5157 15.06401187250039",
    "COMMENT": "Grouped by shell and plane from TLE"
  },
  {
    "OBJECT_NAME": "STARLINK-3389",
    "OBJECT_ID": "22005W",
    "EPOCH": "2025-11-10T20:38:03.385824",
    "MEAN_MOTION": 15.08840379,
    "ECCENTRICITY": 0.0001288,
    "INCLINATION": 53.216,
    "RA_OF_ASC_NODE": 112.5676,
    "ARG_OF_PERICENTER": 91.736,
    "MEAN_ANOMALY": 268.3779,
    "EPHEMERIS_TYPE": 0,
    "CLASSIFICATION_TYPE": "U",
    "NORAD_CAT_ID": 51124,
    "ELEMENT_SET_NO": 999,
    "REV_AT_EPOCH": 21080,
    "BSTAR": 0.00015516,
    "MEAN_MOTION_DOT": 2.182e-05,
    "MEAN_MOTION_DDOT": 0.0,
    "TLE_LINE1": "1 51124U 22005W   25314.85976141  .00002182  00000+0  15516-3 0  9991",
    "TLE_LINE2": "2 51124  53.2160 112.5676 0001288  91.7360 268.3779 15.08840379210803",
    "COMMENT": "Grouped by shell and plane from TLE"
  },
  {
    "OBJECT_NAME": "STARLINK-3387",
    "OBJECT_ID": "22005X",
    "EPOCH": "2025-11-10T20:23:31.929504",
    "MEAN_MOTION": 15.08844253,
    "ECCENTRICITY": 0.0001382,
    "INCLINATION": 53.2166,
    "RA_OF_ASC_NODE": 112.6218,
    "ARG_OF_PERICENTER": 91.67,
    "MEAN_ANOMALY": 268.445,
    "EPHEMERIS_TYPE": 0,
    "CLASSIFICATION_TYPE": "U",
    "NORAD_CAT_ID": 51125,
    "ELEMENT_SET_NO": 999,
    "REV_AT_EPOCH": 21078,
    "BSTAR": 9.3416e-05,
    "MEAN_MOTION_DOT": 1.199e-05,
    "MEAN_MOTION_DDOT": 0.0,
    "TLE_LINE1": "1 51125U 22005X   25314.84967511  .00001199  00000+0  93416-4 0  9995",
    "TLE_LINE2": "2 51125  53.2166 112.6218 0001382  91.6700 268.4450 15.08844253210784",
    "COMMENT": "Grouped by shell and plane from TLE"
  },
  {
    "OBJECT_NAME": "STARLINK-3386",
    "OBJECT_ID": "22005Y",
    "EPOCH": "2025-11-10T20:34:09.206400",
    "MEAN_MOTION": 15.08839205,
    "ECCENTRICITY": 0.0001286,
    "INCLINATION": 53.2158,
    "RA_OF_ASC_NODE": 112.5903,
    "ARG_OF_PERICENTER": 87.0104,
    "MEAN_ANOMALY": 273.1035,
    "EPHEMERIS_TYPE": 0,
    "CLASSIFICATION_TYPE": "U",
    "NORAD_CAT_ID": 51126,
    "ELEMENT_SET_NO": 999,
    "REV_AT_EPOCH": 21080,
    "BSTAR": 0.00012614,
    "MEAN_MOTION_DOT": 1.72e-05,
    "MEAN_MOTION_DDOT": 0.0,
    "TLE_LINE1": "1 51126U 22005Y   25314.85705100  .00001720  00000+0  12614-3 0  9991",
    "TLE_LINE2": "2 51126  53.2158 112.5903 0001286  87.0104 273.1035 15.08839205210802",
    "COMMENT": "Grouped by shell and plane from TLE"
  },
  {
    "OBJECT_NAME": "STARLINK-3370",
    "OBJECT_ID": "22005Z",
    "EPOCH": "2025-11-10T20:28:49.710432",
    "MEAN_MOTION": 15.08881538,
    "ECCENTRICITY": 0.0001176,
    "INCLINATION": 53.2159,
    "RA_OF_ASC_NODE": 112.6069,
    "ARG_OF_PERICENTER": 81.7883,
    "MEAN_ANOMALY": 278.3243,
    "EPHEMERIS_TYPE": 0,
    "CLASSIFICATION_TYPE": "U",
    "NORAD_CAT_ID": 51127,
    "ELEMENT_SET_NO": 999,
    "REV_AT_EPOCH": 21079,
    "BSTAR": 0.0,
    "MEAN_MOTION_DOT": -0.00011961,
    "MEAN_MOTION_DDOT": 0.0,
    "TLE_LINE1": "1 51127U 22005Z   25314.85335313 -.00011961  00000+0 -73384-3 0  9998",
    "TLE_LINE2": "2 51127  53.2159 112.6069 0001176  81.7883 278.3243 15.08881538210793",
    "COMMENT": "Grouped by shell and plane from TLE"
  },
  {
    "OBJECT_NAME": "STARLINK-3400",
    "OBJECT_ID": "22005AA",
    "EPOCH": "2025-11-11T03:57:53.134848",
    "MEAN_MOTION": 15.08848809,
    "ECCENTRICITY": 0.0001641,
    "INCLINATION": 53.2159,
    "RA_OF_ASC_NODE": 111.1968,
    "ARG_OF_PERICENTER": 91.6785,
    "MEAN_ANOMALY": 268.4395,
    "EPHEMERIS_TYPE": 0,
    "CLASSIFICATION_TYPE": "U",
    "NORAD_CAT_ID": 51128,
    "ELEMENT_SET_NO": 999,
    "REV_AT_EPOCH": 21083,
    "BSTAR": 0.00016349,
    "MEAN_MOTION_DOT": 2.316e-05,
    "MEAN_MOTION_DDOT": 0.0,
    "TLE_LINE1": "1 51128U 22005AA  25315.16519832  .00002316  00000+0  16349-3 0  9994",
    "TLE_LINE2": "2 51128  53.2159 111.1968 0001641  91.6785 268.4395 15.08848809210831",
    "COMMENT": "Grouped by shell and plane from TLE"
  },
  {
    "OBJECT_NAME": "STARLINK-3396",
    "OBJECT_ID": "22005AB",
    "EPOCH": "2025-11-10T20:39:25.858080",
    "MEAN_MOTION": 15.08840276,
    "ECCENTRICITY": 0.0001218,
    "INCLINATION": 53.2156,
    "RA_OF_ASC_NODE": 112.5629,
    "ARG_OF_PERICENTER": 90.1554,
    "MEAN_ANOMALY": 269.9578,
    "EPHEMERIS_TYPE": 0,
    "CLASSIFICATION_TYPE": "U",
    "NORAD_CAT_ID": 51129,
    "ELEMENT_SET_NO": 999,
    "REV_AT_EPOCH": 21079,
    "BSTAR": 6.8342e-05,
    "MEAN_MOTION_DOT": 8e-06,
    "MEAN_MOTION_DDOT": 0.0,
    "TLE_LINE1": "1 51129U 22005AB  25314.86071595  .00000800  00000+0  68342-4 0  9997",
    "TLE_LINE2": "2 51129  53.2156 112.5629 0001218  90.1554 269.9578 15.08840276210790",
    "COMMENT": "Grouped by shell and plane from TLE"
  }
]